SL-16 R/B               
1 22566U 93016B   26034.14804864  .00000093  00000+0  72172-4 0  9994
2 22566  71.0082 287.7327 0009937   2.7071 357.4104 14.15303514697285
COSMOS 2242             
1 22626U 93024A   26034.13338914  .00002430  00000+0  21162-3 0  9996
2 22626  82.5204 299.7656 0017957  63.6993 296.6071 14.96396558775220
SL-16 R/B               
1 22803U 93059B   26033.53913659  .00000214  00000+0  12941-3 0  9992
2 22803  70.9894  85.2558 0019498 264.4426  95.4474 14.17224164674558
ARIANE 40 R/B           
1 22830U 93061H   26034.13227295  .00000239  00000+0  10355-3 0  9990
2 22830  98.4989 103.6893 0011144  32.2461 327.9403 14.32841752689157
COSMOS 2278             
1 23087U 94023A   26034.15506559 -.00000233  00000+0 -96942-4 0  9992
2 23087  71.0509 247.3507 0006384  78.5102 281.6737 14.14365118639923
SL-16 R/B               
1 23088U 94023B   26033.51028521 -.00000214  00000+0 -85745-4 0  9998
2 23088  71.0000 144.7683 0004411 318.0520  42.0264 14.15004168641114
SL-16 R/B               
1 23343U 94074B   26034.09617209  .00000515  00000+0  75782-4 0  9991
2 23343  97.7151  66.3081 0006097 346.9402  76.9401 14.79364536682136
SL-16 R/B               
1 23405U 94077B   26034.14161929 -.00000167  00000+0 -60811-4 0  9994
2 23405  70.9815  65.1728 0004544 242.4642 117.6020 14.15556694611344
ARIANE 40+ R/B          
1 23561U 95021B   26034.19987042  .00000327  00000+0  11837-3 0  9993
2 23561  98.4567 106.1376 0005814 239.7952 140.8409 14.39745720614286
SL-16 R/B               
1 23705U 95058B   26034.00557929  .00000186  00000+0  11959-3 0  9998
2 23705  71.0190 253.0741 0012639 182.2192 177.8877 14.15488836562944
SL-16 R/B               
1 24298U 96051B   26034.03854340  .00000065  00000+0  61691-4 0  9995
2 24298  70.7567 248.5840 0017950 196.0364 164.0190 14.12405632516754
ORBVIEW 2 (SEASTAR)     
1 24883U 97037A   26034.05443353  .00000309  00000+0  12362-3 0  9991
2 24883  98.8507 197.4605 0002737 143.3002 216.8371 14.35466525503500
