CCSDS_OMM_VERS = 2.0
CREATION_DATE  = 
ORIGINATOR     = 

OBJECT_NAME    = SL-16 R/B
OBJECT_ID      = 1993-016B
CENTER_NAME    = EARTH
REF_FRAME      = TEME
TIME_SYSTEM    = UTC
MEAN_ELEMENT_THEORY = SGP/SGP4

EPOCH          = 2026-02-03T03:33:11.402496
MEAN_MOTION    = 14.15303514
ECCENTRICITY   = .0009937
INCLINATION    = 71.0082
RA_OF_ASC_NODE = 287.7327
ARG_OF_PERICENTER = 2.7071
MEAN_ANOMALY   = 357.4104

EPHEMERIS_TYPE = 0
CLASSIFICATION_TYPE = U
NORAD_CAT_ID   = 22566
ELEMENT_SET_NO = 999
REV_AT_EPOCH   = 69728
BSTAR          = .72172E-4
MEAN_MOTION_DOT = .93E-6
MEAN_MOTION_DDOT = 0

CCSDS_OMM_VERS = 2.0
CREATION_DATE  = 
ORIGINATOR     = 

OBJECT_NAME    = COSMOS 2242
OBJECT_ID      = 1993-024A
CENTER_NAME    = EARTH
REF_FRAME      = TEME
TIME_SYSTEM    = UTC
MEAN_ELEMENT_THEORY = SGP/SGP4

EPOCH          = 2026-02-03T03:12:04.821696
MEAN_MOTION    = 14.96396558
ECCENTRICITY   = .0017957
INCLINATION    = 82.5204
RA_OF_ASC_NODE = 299.7656
ARG_OF_PERICENTER = 63.6993
MEAN_ANOMALY   = 296.6071

EPHEMERIS_TYPE = 0
CLASSIFICATION_TYPE = U
NORAD_CAT_ID   = 22626
ELEMENT_SET_NO = 999
REV_AT_EPOCH   = 77522
BSTAR          = .21162E-3
MEAN_MOTION_DOT = .243E-4
MEAN_MOTION_DDOT = 0

CCSDS_OMM_VERS = 2.0
CREATION_DATE  = 
ORIGINATOR     = 

OBJECT_NAME    = SL-16 R/B
OBJECT_ID      = 1993-059B
CENTER_NAME    = EARTH
REF_FRAME      = TEME
TIME_SYSTEM    = UTC
MEAN_ELEMENT_THEORY = SGP/SGP4

EPOCH          = 2026-02-02T12:56:21.401376
MEAN_MOTION    = 14.17224164
ECCENTRICITY   = .00194988
INCLINATION    = 70.9894
RA_OF_ASC_NODE = 85.2558
ARG_OF_PERICENTER = 264.4426
MEAN_ANOMALY   = 95.4474

EPHEMERIS_TYPE = 0
CLASSIFICATION_TYPE = U
NORAD_CAT_ID   = 22803
ELEMENT_SET_NO = 999
REV_AT_EPOCH   = 67455
BSTAR          = .12941265E-3
MEAN_MOTION_DOT = .214E-5
MEAN_MOTION_DDOT = 0

CCSDS_OMM_VERS = 2.0
CREATION_DATE  = 
ORIGINATOR     = 

OBJECT_NAME    = ARIANE 40 R/B
OBJECT_ID      = 1993-061H
CENTER_NAME    = EARTH
REF_FRAME      = TEME
TIME_SYSTEM    = UTC
MEAN_ELEMENT_THEORY = SGP/SGP4

EPOCH          = 2026-02-03T03:10:28.382880
MEAN_MOTION    = 14.32841752
ECCENTRICITY   = .0011144
INCLINATION    = 98.4989
RA_OF_ASC_NODE = 103.6893
ARG_OF_PERICENTER = 32.2461
MEAN_ANOMALY   = 327.9403

EPHEMERIS_TYPE = 0
CLASSIFICATION_TYPE = U
NORAD_CAT_ID   = 22830
ELEMENT_SET_NO = 999
REV_AT_EPOCH   = 68915
BSTAR          = .10355E-3
MEAN_MOTION_DOT = .239E-5
MEAN_MOTION_DDOT = 0

CCSDS_OMM_VERS = 2.0
CREATION_DATE  = 
ORIGINATOR     = 

OBJECT_NAME    = COSMOS 2278
OBJECT_ID      = 1994-023A
CENTER_NAME    = EARTH
REF_FRAME      = TEME
TIME_SYSTEM    = UTC
MEAN_ELEMENT_THEORY = SGP/SGP4

EPOCH          = 2026-02-03T03:43:17.666976
MEAN_MOTION    = 14.14365118
ECCENTRICITY   = .0006384
INCLINATION    = 71.0509
RA_OF_ASC_NODE = 247.3507
ARG_OF_PERICENTER = 78.5102
MEAN_ANOMALY   = 281.6737

EPHEMERIS_TYPE = 0
CLASSIFICATION_TYPE = U
NORAD_CAT_ID   = 23087
ELEMENT_SET_NO = 999
REV_AT_EPOCH   = 63992
BSTAR          = -.96942E-4
MEAN_MOTION_DOT = -.233E-5
MEAN_MOTION_DDOT = 0

CCSDS_OMM_VERS = 2.0
CREATION_DATE  = 
ORIGINATOR     = 

OBJECT_NAME    = SL-16 R/B
OBJECT_ID      = 1994-023B
CENTER_NAME    = EARTH
REF_FRAME      = TEME
TIME_SYSTEM    = UTC
MEAN_ELEMENT_THEORY = SGP/SGP4

EPOCH          = 2026-02-02T12:14:48.642144
MEAN_MOTION    = 14.15004168
ECCENTRICITY   = .00044114
INCLINATION    = 71.0000
RA_OF_ASC_NODE = 144.7683
ARG_OF_PERICENTER = 318.0520
MEAN_ANOMALY   = 42.0264

EPHEMERIS_TYPE = 0
CLASSIFICATION_TYPE = U
NORAD_CAT_ID   = 23088
ELEMENT_SET_NO = 999
REV_AT_EPOCH   = 64111
BSTAR          = -.85744755E-4
MEAN_MOTION_DOT = -.214E-5
MEAN_MOTION_DDOT = 0

CCSDS_OMM_VERS = 2.0
CREATION_DATE  = 
ORIGINATOR     = 

OBJECT_NAME    = SL-16 R/B
OBJECT_ID      = 1994-074B
CENTER_NAME    = EARTH
REF_FRAME      = TEME
TIME_SYSTEM    = UTC
MEAN_ELEMENT_THEORY = SGP/SGP4

EPOCH          = 2026-02-03T02:18:29.268576
MEAN_MOTION    = 14.79364536
ECCENTRICITY   = .0006097
INCLINATION    = 97.7151
RA_OF_ASC_NODE = 66.3081
ARG_OF_PERICENTER = 346.9402
MEAN_ANOMALY   = 76.9401

EPHEMERIS_TYPE = 0
CLASSIFICATION_TYPE = U
NORAD_CAT_ID   = 23343
ELEMENT_SET_NO = 999
REV_AT_EPOCH   = 68213
BSTAR          = .75782E-4
MEAN_MOTION_DOT = .515E-5
MEAN_MOTION_DDOT = 0

CCSDS_OMM_VERS = 2.0
CREATION_DATE  = 
ORIGINATOR     = 

OBJECT_NAME    = SL-16 R/B
OBJECT_ID      = 1994-077B
CENTER_NAME    = EARTH
REF_FRAME      = TEME
TIME_SYSTEM    = UTC
MEAN_ELEMENT_THEORY = SGP/SGP4

EPOCH          = 2026-02-03T03:23:55.906656
MEAN_MOTION    = 14.15556694
ECCENTRICITY   = .0004544
INCLINATION    = 70.9815
RA_OF_ASC_NODE = 65.1728
ARG_OF_PERICENTER = 242.4642
MEAN_ANOMALY   = 117.6020

EPHEMERIS_TYPE = 0
CLASSIFICATION_TYPE = U
NORAD_CAT_ID   = 23405
ELEMENT_SET_NO = 999
REV_AT_EPOCH   = 61134
BSTAR          = -.60811E-4
MEAN_MOTION_DOT = -.167E-5
MEAN_MOTION_DDOT = 0

CCSDS_OMM_VERS = 2.0
CREATION_DATE  = 
ORIGINATOR     = 

OBJECT_NAME    = ARIANE 40+ R/B
OBJECT_ID      = 1995-021B
CENTER_NAME    = EARTH
REF_FRAME      = TEME
TIME_SYSTEM    = UTC
MEAN_ELEMENT_THEORY = SGP/SGP4

EPOCH          = 2026-02-03T04:47:48.804288
MEAN_MOTION    = 14.39745720
ECCENTRICITY   = .0005814
INCLINATION    = 98.4567
RA_OF_ASC_NODE = 106.1376
ARG_OF_PERICENTER = 239.7952
MEAN_ANOMALY   = 140.8409

EPHEMERIS_TYPE = 0
CLASSIFICATION_TYPE = U
NORAD_CAT_ID   = 23561
ELEMENT_SET_NO = 999
REV_AT_EPOCH   = 61428
BSTAR          = .11837E-3
MEAN_MOTION_DOT = .327E-5
MEAN_MOTION_DDOT = 0

CCSDS_OMM_VERS = 2.0
CREATION_DATE  = 
ORIGINATOR     = 

OBJECT_NAME    = SL-16 R/B
OBJECT_ID      = 1995-058B
CENTER_NAME    = EARTH
REF_FRAME      = TEME
TIME_SYSTEM    = UTC
MEAN_ELEMENT_THEORY = SGP/SGP4

EPOCH          = 2026-02-03T00:08:02.050656
MEAN_MOTION    = 14.15488836
ECCENTRICITY   = .0012639
INCLINATION    = 71.0190
RA_OF_ASC_NODE = 253.0741
ARG_OF_PERICENTER = 182.2192
MEAN_ANOMALY   = 177.8877

EPHEMERIS_TYPE = 0
CLASSIFICATION_TYPE = U
NORAD_CAT_ID   = 23705
ELEMENT_SET_NO = 999
REV_AT_EPOCH   = 56294
BSTAR          = .11959E-3
MEAN_MOTION_DOT = .186E-5
MEAN_MOTION_DDOT = 0

CCSDS_OMM_VERS = 2.0
CREATION_DATE  = 
ORIGINATOR     = 

OBJECT_NAME    = SL-16 R/B
OBJECT_ID      = 1996-051B
CENTER_NAME    = EARTH
REF_FRAME      = TEME
TIME_SYSTEM    = UTC
MEAN_ELEMENT_THEORY = SGP/SGP4

EPOCH          = 2026-02-03T00:55:30.149760
MEAN_MOTION    = 14.12405632
ECCENTRICITY   = .001795
INCLINATION    = 70.7567
RA_OF_ASC_NODE = 248.5840
ARG_OF_PERICENTER = 196.0364
MEAN_ANOMALY   = 164.0190

EPHEMERIS_TYPE = 0
CLASSIFICATION_TYPE = U
NORAD_CAT_ID   = 24298
ELEMENT_SET_NO = 999
REV_AT_EPOCH   = 51675
BSTAR          = .61691E-4
MEAN_MOTION_DOT = .65E-6
MEAN_MOTION_DDOT = 0

CCSDS_OMM_VERS = 2.0
CREATION_DATE  = 
ORIGINATOR     = 

OBJECT_NAME    = ORBVIEW 2 (SEASTAR)
OBJECT_ID      = 1997-037A
CENTER_NAME    = EARTH
REF_FRAME      = TEME
TIME_SYSTEM    = UTC
MEAN_ELEMENT_THEORY = SGP/SGP4

EPOCH          = 2026-02-03T01:18:23.056992
MEAN_MOTION    = 14.35466525
ECCENTRICITY   = .0002737
INCLINATION    = 98.8507
RA_OF_ASC_NODE = 197.4605
ARG_OF_PERICENTER = 143.3002
MEAN_ANOMALY   = 216.8371

EPHEMERIS_TYPE = 0
CLASSIFICATION_TYPE = U
NORAD_CAT_ID   = 24883
ELEMENT_SET_NO = 999
REV_AT_EPOCH   = 50350
BSTAR          = .12362E-3
MEAN_MOTION_DOT = .309E-5
MEAN_MOTION_DDOT = 0

